[{"OBJECT_NAME":"ONEWEB-0334","OBJECT_ID":"2021-083Q","EPOCH":"2026-02-26T03:48:43.387200","MEAN_MOTION":13.20771371,"ECCENTRICITY":0.00015843,"INCLINATION":87.9181,"RA_OF_ASC_NODE":296.6212,"ARG_OF_PERICENTER":119.2787,"MEAN_ANOMALY":240.8505,"EPHEMERIS_TYPE":0,"CLASSIFICATION_TYPE":"U","NORAD_CAT_ID":49200,"ELEMENT_SET_NO":999,"REV_AT_EPOCH":22213,"BSTAR":0.00011968289,"MEAN_MOTION_DOT":6.2e-7,"MEAN_MOTION_DDOT":0},{"OBJECT_NAME":"ONEWEB-0335","OBJECT_ID":"2021-083R","EPOCH":"2026-02-26T05:17:30.894144","MEAN_MOTION":13.13468642,"ECCENTRICITY":0.00017976,"INCLINATION":87.9034,"RA_OF_ASC_NODE":342.302,"ARG_OF_PERICENTER":72.6514,"MEAN_ANOMALY":287.4811,"EPHEMERIS_TYPE":0,"CLASSIFICATION_TYPE":"U","NORAD_CAT_ID":49201,"ELEMENT_SET_NO":999,"REV_AT_EPOCH":21635,"BSTAR":0.00025890021,"MEAN_MOTION_DOT":1.07e-6,"MEAN_MOTION_DDOT":0},{"OBJECT_NAME":"ONEWEB-0336","OBJECT_ID":"2021-083S","EPOCH":"2026-02-26T06:25:46.131456","MEAN_MOTION":13.1346809,"ECCENTRICITY":0.0001992,"INCLINATION":87.9036,"RA_OF_ASC_NODE":342.2896,"ARG_OF_PERICENTER":67.3155,"MEAN_ANOMALY":292.8184,"EPHEMERIS_TYPE":0,"CLASSIFICATION_TYPE":"U","NORAD_CAT_ID":49202,"ELEMENT_SET_NO":999,"REV_AT_EPOCH":21635,"BSTAR":-0.00065000881,"MEAN_MOTION_DOT":-2.25e-6,"MEAN_MOTION_DDOT":0},{"OBJECT_NAME":"ONEWEB-0337","OBJECT_ID":"2021-083T","EPOCH":"2026-02-26T06:40:12.683712","MEAN_MOTION":13.13469545,"ECCENTRICITY":0.00019608,"INCLINATION":87.903,"RA_OF_ASC_NODE":342.2974,"ARG_OF_PERICENTER":76.1181,"MEAN_ANOMALY":284.0167,"EPHEMERIS_TYPE":0,"CLASSIFICATION_TYPE":"U","NORAD_CAT_ID":49203,"ELEMENT_SET_NO":999,"REV_AT_EPOCH":21635,"BSTAR":-0.00092178769,"MEAN_MOTION_DOT":-3.24e-6,"MEAN_MOTION_DDOT":0},{"OBJECT_NAME":"ONEWEB-0338","OBJECT_ID":"2021-083U","EPOCH":"2026-02-26T05:01:25.873536","MEAN_MOTION":13.20774515,"ECCENTRICITY":0.00015654,"INCLINATION":87.918,"RA_OF_ASC_NODE":296.6157,"ARG_OF_PERICENTER":94.6798,"MEAN_ANOMALY":265.4514,"EPHEMERIS_TYPE":0,"CLASSIFICATION_TYPE":"U","NORAD_CAT_ID":49204,"ELEMENT_SET_NO":999,"REV_AT_EPOCH":22216,"BSTAR":-3.6800172e-5,"MEAN_MOTION_DOT":-2.0e-8,"MEAN_MOTION_DDOT":0},{"OBJECT_NAME":"ONEWEB-0339","OBJECT_ID":"2021-083V","EPOCH":"2026-02-26T06:52:35.823936","MEAN_MOTION":13.13469259,"ECCENTRICITY":0.00018047,"INCLINATION":87.9038,"RA_OF_ASC_NODE":342.2825,"ARG_OF_PERICENTER":88.1669,"MEAN_ANOMALY":271.9666,"EPHEMERIS_TYPE":0,"CLASSIFICATION_TYPE":"U","NORAD_CAT_ID":49205,"ELEMENT_SET_NO":999,"REV_AT_EPOCH":21633,"BSTAR":-0.0004133284,"MEAN_MOTION_DOT":-1.38e-6,"MEAN_MOTION_DDOT":0},{"OBJECT_NAME":"ONEWEB-0340","OBJECT_ID":"2021-083W","EPOCH":"2026-02-26T06:41:08.881728","MEAN_MOTION":13.18685461,"ECCENTRICITY":0.00018294,"INCLINATION":87.9243,"RA_OF_ASC_NODE":357.4745,"ARG_OF_PERICENTER":76.8006,"MEAN_ANOMALY":283.333,"EPHEMERIS_TYPE":0,"CLASSIFICATION_TYPE":"U","NORAD_CAT_ID":49206,"ELEMENT_SET_NO":999,"REV_AT_EPOCH":21535,"BSTAR":0.0001217706,"MEAN_MOTION_DOT":6.1e-7,"MEAN_MOTION_DDOT":0},{"OBJECT_NAME":"ONEWEB-0341","OBJECT_ID":"2021-083X","EPOCH":"2026-02-26T06:50:39.400800","MEAN_MOTION":13.1868577,"ECCENTRICITY":0.00024562,"INCLINATION":87.9245,"RA_OF_ASC_NODE":357.4829,"ARG_OF_PERICENTER":78.5196,"MEAN_ANOMALY":281.6212,"EPHEMERIS_TYPE":0,"CLASSIFICATION_TYPE":"U","NORAD_CAT_ID":49207,"ELEMENT_SET_NO":999,"REV_AT_EPOCH":21537,"BSTAR":1.6164947e-5,"MEAN_MOTION_DOT":1.9e-7,"MEAN_MOTION_DDOT":0},{"OBJECT_NAME":"ONEWEB-0342","OBJECT_ID":"2021-083Y","EPOCH":"2026-02-26T05:10:32.037312","MEAN_MOTION":13.20772493,"ECCENTRICITY":0.00016427,"INCLINATION":87.9192,"RA_OF_ASC_NODE":296.5915,"ARG_OF_PERICENTER":87.5453,"MEAN_ANOMALY":272.5868,"EPHEMERIS_TYPE":0,"CLASSIFICATION_TYPE":"U","NORAD_CAT_ID":49208,"ELEMENT_SET_NO":999,"REV_AT_EPOCH":22213,"BSTAR":7.2750587e-5,"MEAN_MOTION_DOT":4.3e-7,"MEAN_MOTION_DDOT":0},{"OBJECT_NAME":"ONEWEB-0343","OBJECT_ID":"2021-083Z","EPOCH":"2026-02-26T05:13:15.707424","MEAN_MOTION":13.1868584,"ECCENTRICITY":0.00024066,"INCLINATION":87.9244,"RA_OF_ASC_NODE":357.4903,"ARG_OF_PERICENTER":85.7127,"MEAN_ANOMALY":274.4281,"EPHEMERIS_TYPE":0,"CLASSIFICATION_TYPE":"U","NORAD_CAT_ID":49209,"ELEMENT_SET_NO":999,"REV_AT_EPOCH":21541,"BSTAR":9.7144234e-5,"MEAN_MOTION_DOT":5.1e-7,"MEAN_MOTION_DDOT":0},{"OBJECT_NAME":"ONEWEB-0344","OBJECT_ID":"2021-083AA","EPOCH":"2026-02-26T06:45:17.041536","MEAN_MOTION":13.13469413,"ECCENTRICITY":0.00021321,"INCLINATION":87.9027,"RA_OF_ASC_NODE":342.3081,"ARG_OF_PERICENTER":77.8044,"MEAN_ANOMALY":282.3324,"EPHEMERIS_TYPE":0,"CLASSIFICATION_TYPE":"U","NORAD_CAT_ID":49210,"ELEMENT_SET_NO":999,"REV_AT_EPOCH":21633,"BSTAR":-0.00065544906,"MEAN_MOTION_DOT":-2.27e-6,"MEAN_MOTION_DDOT":0},{"OBJECT_NAME":"ONEWEB-0345","OBJECT_ID":"2021-083AB","EPOCH":"2026-02-26T06:33:05.249088","MEAN_MOTION":13.13471295,"ECCENTRICITY":0.00021337,"INCLINATION":87.9039,"RA_OF_ASC_NODE":342.2761,"ARG_OF_PERICENTER":78.8219,"MEAN_ANOMALY":281.315,"EPHEMERIS_TYPE":0,"CLASSIFICATION_TYPE":"U","NORAD_CAT_ID":49211,"ELEMENT_SET_NO":999,"REV_AT_EPOCH":21634,"BSTAR":-0.00071702035,"MEAN_MOTION_DOT":-2.49e-6,"MEAN_MOTION_DDOT":0},{"OBJECT_NAME":"ONEWEB-0346","OBJECT_ID":"2021-083AC","EPOCH":"2026-02-26T06:57:45.196416","MEAN_MOTION":13.18687221,"ECCENTRICITY":0.00018748,"INCLINATION":87.9234,"RA_OF_ASC_NODE":357.4852,"ARG_OF_PERICENTER":57.7097,"MEAN_ANOMALY":302.4216,"EPHEMERIS_TYPE":0,"CLASSIFICATION_TYPE":"U","NORAD_CAT_ID":49212,"ELEMENT_SET_NO":999,"REV_AT_EPOCH":21536,"BSTAR":1.4816138e-5,"MEAN_MOTION_DOT":1.9e-7,"MEAN_MOTION_DDOT":0},{"OBJECT_NAME":"ONEWEB-0348","OBJECT_ID":"2021-083AD","EPOCH":"2026-02-26T04:56:54.232800","MEAN_MOTION":13.20771362,"ECCENTRICITY":0.00019783,"INCLINATION":87.9188,"RA_OF_ASC_NODE":296.597,"ARG_OF_PERICENTER":68.6028,"MEAN_ANOMALY":291.5316,"EPHEMERIS_TYPE":0,"CLASSIFICATION_TYPE":"U","NORAD_CAT_ID":49213,"ELEMENT_SET_NO":999,"REV_AT_EPOCH":22216,"BSTAR":0.00011457636,"MEAN_MOTION_DOT":6.0e-7,"MEAN_MOTION_DDOT":0},{"OBJECT_NAME":"ONEWEB-0350","OBJECT_ID":"2021-083AE","EPOCH":"2026-02-26T06:46:30.095328","MEAN_MOTION":13.13469695,"ECCENTRICITY":0.00021034,"INCLINATION":87.9033,"RA_OF_ASC_NODE":342.2743,"ARG_OF_PERICENTER":77.0658,"MEAN_ANOMALY":283.0706,"EPHEMERIS_TYPE":0,"CLASSIFICATION_TYPE":"U","NORAD_CAT_ID":49214,"ELEMENT_SET_NO":999,"REV_AT_EPOCH":21637,"BSTAR":-0.00069980313,"MEAN_MOTION_DOT":-2.43e-6,"MEAN_MOTION_DDOT":0},{"OBJECT_NAME":"ONEWEB-0351","OBJECT_ID":"2021-083AF","EPOCH":"2026-02-26T04:47:37.644000","MEAN_MOTION":13.20771782,"ECCENTRICITY":0.00020865,"INCLINATION":87.919,"RA_OF_ASC_NODE":296.5962,"ARG_OF_PERICENTER":106.1836,"MEAN_ANOMALY":253.9527,"EPHEMERIS_TYPE":0,"CLASSIFICATION_TYPE":"U","NORAD_CAT_ID":49215,"ELEMENT_SET_NO":999,"REV_AT_EPOCH":22212,"BSTAR":8.5578517e-5,"MEAN_MOTION_DOT":4.8e-7,"MEAN_MOTION_DDOT":0}]
