ONEWEB-0334             
1 49200U 21083Q   26057.15883550  .00000062  00000+0  11968-3 0  9999
2 49200  87.9181 296.6212 0001584 119.2787 240.8505 13.20771371222138
ONEWEB-0335             
1 49201U 21083R   26057.22049646  .00000107  00000+0  25890-3 0  9997
2 49201  87.9034 342.3020 0001797  72.6514 287.4811 13.13468642216358
ONEWEB-0336             
1 49202U 21083S   26057.26789504 -.00000225  00000+0 -65001-3 0  9997
2 49202  87.9036 342.2896 0001992  67.3155 292.8184 13.13468090216350
ONEWEB-0337             
1 49203U 21083T   26057.27792458 -.00000324  00000+0 -92179-3 0  9997
2 49203  87.9030 342.2974 0001960  76.1181 284.0167 13.13469545216354
ONEWEB-0338             
1 49204U 21083U   26057.20932724 -.00000002  00000+0 -36800-4 0  9996
2 49204  87.9180 296.6157 0001565  94.6798 265.4514 13.20774515222165
ONEWEB-0339             
1 49205U 21083V   26057.28652574 -.00000138  00000+0 -41333-3 0  9993
2 49205  87.9038 342.2825 0001804  88.1669 271.9666 13.13469259216339
ONEWEB-0340             
1 49206U 21083W   26057.27857502  .00000061  00000+0  12177-3 0  9998
2 49206  87.9243 357.4745 0001829  76.8006 283.3330 13.18685461215359
ONEWEB-0341             
1 49207U 21083X   26057.28517825  .00000019  00000+0  16165-4 0  9996
2 49207  87.9245 357.4829 0002456  78.5196 281.6212 13.18685770215376
ONEWEB-0342             
1 49208U 21083Y   26057.21564858  .00000043  00000+0  72751-4 0  9998
2 49208  87.9192 296.5915 0001642  87.5453 272.5868 13.20772493222139
ONEWEB-0343             
1 49209U 21083Z   26057.21754291  .00000051  00000+0  97144-4 0  9993
2 49209  87.9244 357.4903 0002406  85.7127 274.4281 13.18685840215418
ONEWEB-0344             
1 49210U 21083AA  26057.28144724 -.00000227  00000+0 -65545-3 0  9992
2 49210  87.9027 342.3081 0002132  77.8044 282.3324 13.13469413216334
ONEWEB-0345             
1 49211U 21083AB  26057.27297742 -.00000249  00000+0 -71702-3 0  9997
2 49211  87.9039 342.2761 0002133  78.8219 281.3150 13.13471295216346
ONEWEB-0346             
1 49212U 21083AC  26057.29010644  .00000019  00000+0  14816-4 0  9991
2 49212  87.9234 357.4852 0001874  57.7097 302.4216 13.18687221215366
ONEWEB-0348             
1 49213U 21083AD  26057.20618325  .00000060  00000+0  11458-3 0  9997
2 49213  87.9188 296.5970 0001978  68.6028 291.5316 13.20771362222167
ONEWEB-0350             
1 49214U 21083AE  26057.28229277 -.00000243  00000+0 -69980-3 0  9998
2 49214  87.9033 342.2743 0002103  77.0658 283.0706 13.13469695216378
ONEWEB-0351             
1 49215U 21083AF  26057.19974125  .00000048  00000+0  85579-4 0  9992
2 49215  87.9190 296.5962 0002086 106.1836 253.9527 13.20771782222127
